ONEWEB-0456             
1 51646U 22012AA  24193.03648133  .00000498  00000+0  13912-2 0  9994
2 51646  87.8935 176.6715 0002145  74.2265 285.9098 13.10369340118152
ONEWEB-0457             
1 51647U 22012AB  24192.93687484  .00000534  00000+0  14928-2 0  9994
2 51647  87.8949 176.7152 0002018  94.4928 265.6429 13.10374371116851
ONEWEB-0458             
1 51648U 22012AC  24192.95845461  .00000409  00000+0  11345-2 0  9999
2 51648  87.8945 176.7271 0002235  86.1798 273.9585 13.10370852116815
ONEWEB-0461             
1 51649U 22012AD  24193.09802752 -.00000071  00000+0 -21483-3 0  9994
2 51649  87.9182 146.4423 0002148  84.3245 275.8132 13.17648324122199
ONEWEB-0463             
1 51650U 22012AE  24192.85245169  .00000002  00000+0 -28111-4 0  9991
2 51650  87.9183 146.5387 0002148  84.5221 275.6155 13.17649592120658
ONEWEB-0464             
1 51651U 22012AF  24192.95514217  .00000480  00000+0  13384-2 0  9999
2 51651  87.8946 176.7166 0002082  75.3269 284.8089 13.10371368116831
ONEWEB-0468             
1 51652U 22012AG  24192.88541623  .00000162  00000+0  42648-3 0  9996
2 51652  87.8944 176.7230 0002062  84.2616 275.8746 13.10370128118098
ONEWEB-0473             
1 51653U 22012AH  24192.94684313  .00000631  00000+0  17727-2 0  9998
2 51653  87.8948 176.7142 0002171  84.5987 275.5388 13.10372503116816
ONEWEB-0474             
1 51654U 22012AJ  24192.93853948  .00000551  00000+0  15412-2 0  9990
2 51654  87.8940 176.7104 0002233  80.3029 279.8351 13.10375122116803
ONEWEB-0475             
1 51655U 22012AK  24192.93971320  .00000070  00000+0  14829-3 0  9994
2 51655  87.9183 146.5008 0002466  76.3698 283.7708 13.17650837120684
ONEWEB-0490             
1 54113U 22138A   24192.67369102 -.00000379  00000+0 -98001-3 0  9993
2 54113  87.9138  85.5542 0001925  73.6076 286.5268 13.19724914 83646
ONEWEB-0492             
1 54114U 22138B   24193.15386173  .00000023  00000+0  25820-4 0  9999
2 54114  87.9142  85.4627 0001933  67.3233 292.8103 13.19728078 84586
ONEWEB-0495             
1 54115U 22138C   24192.67686696 -.00000029  00000+0 -10602-3 0  9998
2 54115  87.9144  85.5693 0002523  62.2757 297.8631 13.19723854 83637
ONEWEB-0497             
1 54116U 22138D   24192.46204926  .00000025  00000+0  28965-4 0  9994
2 54116  87.9140  85.5993 0001934  73.5420 286.5925 13.19725435 83597
ONEWEB-0499             
1 54117U 22138E   24192.67211889 -.00000017  00000+0 -75445-4 0  9992
2 54117  87.9144  85.5597 0002404  81.4091 278.7314 13.19727604 83637
ONEWEB-0500             
1 54118U 22138F   24192.67528146  .00000018  00000+0  11912-4 0  9998
2 54118  87.9141  85.5544 0001853  74.6801 285.4536 13.19723669 83646
ONEWEB-0501             
1 54119U 22138G   24193.16019800  .00000005  00000+0 -18885-4 0  9999
2 54119  87.9137  85.4557 0002315  67.1197 293.0180 13.19723582 84559
ONEWEB-0502             
1 54120U 22138H   24193.22179618  .00000093  00000+0  20047-3 0  9990
2 54120  87.9136  85.4322 0002230  73.8193 286.3185 13.19725283 84589
ONEWEB-0503             
1 54121U 22138J   24192.68002378 -.00000047  00000+0 -14859-3 0  9993
2 54121  87.9136  85.5469 0002206  87.8663 272.2722 13.19724542 83636
ONEWEB-0504             
1 54122U 22138K   24193.19810421  .00000130  00000+0  29306-3 0  9991
2 54122  87.9139  85.4501 0002284  76.4660 283.6727 13.19724437 84582
ONEWEB-0505             
1 54123U 22138L   24192.43677741  .00000079  00000+0  16466-3 0  9999
2 54123  87.9138  85.5965 0002571  67.8672 292.2733 13.19724587 83592
ONEWEB-0506             
1 54124U 22138M   24193.16966112 -.00000264  00000+0 -69282-3 0  9996
2 54124  87.9137  85.4473 0002097  72.9354 287.2008 13.19725583 84555
ONEWEB-0507             
1 54125U 22138N   24193.19020487  .00000151  00000+0  34578-3 0  9999
2 54125  87.9148  85.4664 0002057  68.7630 291.3723 13.19724865 84604
ONEWEB-0508             
1 54126U 22138P   24192.42888678 -.00000095  00000+0 -26910-3 0  9999
2 54126  87.9143  85.6110 0002122  63.9351 296.2000 13.19726249 83618
ONEWEB-0509             
1 54127U 22138Q   24193.16177570 -.00000008  00000+0 -51974-4 0  9997
2 54127  87.9136  85.4500 0002048  74.4410 285.6948 13.19724675 84550
ONEWEB-0510             
1 54128U 22138R   24192.54790480  .00000005  00000+0 -18583-4 0  9995
2 54128  87.9194  55.0186 0001362  84.3631 275.7657 13.20771505 86006
ONEWEB-0511             
1 54129U 22138S   24193.15861590  .00000036  00000+0  58644-4 0  9990
2 54129  87.9136  85.4540 0002255  83.1610 276.9780 13.19725256 84581
ONEWEB-0512             
1 54130U 22138T   24193.15071531  .00000021  00000+0  19568-4 0  9996
2 54130  87.9145  85.4736 0002340  69.4765 290.6619 13.19724344 84551
ONEWEB-0513             
1 54131U 22138U   24192.43913465  .00000045  00000+0  79293-4 0  9995
2 54131  87.9143  85.6091 0002523  75.2616 284.8796 13.19727373 83475
ONEWEB-0514             
1 54132U 22138V   24193.16650790 -.00000027  00000+0 -10032-3 0  9993
2 54132  87.9138  85.4588 0001903  79.0736 281.0611 13.19723831 84577
ONEWEB-0515             
1 54133U 22138W   24192.30799351 -.00000003  00000+0 -40244-4 0  9999
2 54133  87.9193  55.0459 0000778  85.8087 274.3135 13.20773555 85995
ONEWEB-0516             
1 54134U 22138X   24193.21705165  .00000032  00000+0  48009-4 0  9998
2 54134  87.9146  85.4615 0001869  73.8989 286.2350 13.19726856 84580
ONEWEB-0517             
1 54135U 22138Y   24193.19651132 -.00000079  00000+0 -22955-3 0  9994
2 54135  87.9138  85.4489 0002197  87.0852 273.0532 13.19724625 84580
ONEWEB-0518             
1 54136U 22138Z   24193.21547354  .00000071  00000+0  14609-3 0  9995
2 54136  87.9145  85.4598 0001988  79.3058 280.8299 13.19724490 84585
ONEWEB-0519             
1 54137U 22138AA  24193.16492457 -.00000023  00000+0 -90785-4 0  9992
2 54137  87.9139  85.4506 0002314  76.5411 283.5979 13.19723785 84585
ONEWEB-0520             
1 54138U 22138AB  24192.66896545  .00000020  00000+0  17359-4 0  9994
2 54138  87.9138  85.5525 0002289  67.3139 292.8236 13.19724255 83630
ONEWEB-0521             
1 54139U 22138AC  24193.15703412  .00000052  00000+0  98488-4 0  9997
2 54139  87.9134  85.4477 0001984  85.0036 275.1324 13.19724692 84544
ONEWEB-0522             
1 54140U 22138AD  24192.45414728  .00000039  00000+0  65241-4 0  9996
2 54140  87.9137  85.5897 0001899  73.9738 286.1604 13.19724738 83594
ONEWEB-0523             
1 54141U 22138AE  24193.12870266 -.00000009  00000+0 -54541-4 0  9995
2 54141  87.9195  54.9104 0001361 112.4091 247.7186 13.20771578 86974
ONEWEB-0524             
1 54142U 22138AF  24192.58736499 -.00001030  00000+0 -25656-2 0  9992
2 54142  87.9197  55.0218 0000845  59.8895 300.2322 13.20761606 86908
ONEWEB-0525             
1 54143U 22138AG  24193.15545745  .00000016  00000+0  67811-5 0  9992
2 54143  87.9138  85.4593 0002146  70.8904 289.2461 13.19725158 84578
ONEWEB-0526             
1 54144U 22138AH  24193.18861410 -.00000077  00000+0 -22417-3 0  9996
2 54144  87.9136  85.4473 0001945  73.6301 286.5046 13.19724628 84550
ONEWEB-0529             
1 54145U 22138AJ  24192.20616678  .00000131  00000+0  29515-3 0  9998
2 54145  87.9145  85.6601 0002119  69.0836 291.0524 13.19726478 83570
ONEWEB-0531             
1 54146U 22138AK  24193.17920678  .00000072  00000+0  14461-3 0  9992
2 54146  87.9194  54.8948 0000906 111.0444 249.0786 13.20771771 86981
ONEWEB-0535             
1 54147U 22138AL  24193.14913744  .00000034  00000+0  53571-4 0  9990
2 54147  87.9135  85.4533 0001659  82.7236 277.4086 13.19725565 84586
ONEWEB-0536             
1 54148U 22138AM  24192.33325693  .00000154  00000+0  34754-3 0  9995
2 54148  87.9193  55.1123 0001517 118.7833 241.3453 13.20771064 85997
ONEWEB-0527             
1 54642U 22166A   24193.07528296  .00000038  00000+0  60452-4 0  9997
2 54642  87.9277  24.5600 0001738  86.2892 273.8441 13.21825228 78709
ONEWEB-0528             
1 54643U 22166B   24192.93019932 -.00000005  00000+0 -44303-4 0  9997
2 54643  87.9282  24.5764 0001846  82.6173 277.5171 13.21826124 78245
ONEWEB-0539             
1 54644U 22166C   24192.89077120 -.00000036  00000+0 -11852-3 0  9992
2 54644  87.9283  24.5869 0002028  90.1800 269.9567 13.21825178 78238
ONEWEB-0540             
1 54645U 22166D   24193.03664470  .00000044  00000+0  75267-4 0  9998
2 54645  87.9277  24.5749 0002094  88.5648 271.5725 13.21825375 78710
ONEWEB-0542             
1 54646U 22166E   24193.05162982  .00000040  00000+0  64694-4 0  9990
2 54646  87.9283  24.5544 0002195  97.9776 262.1607 13.21825531 78718
ONEWEB-0545             
1 54647U 22166F   24193.09420713  .00000051  00000+0  92057-4 0  9990
2 54647  87.9271  24.5644 0002352  90.5644 269.5759 13.21825354 78694
ONEWEB-0580             
1 54648U 22166G   24192.91600341 -.00000016  00000+0 -70307-4 0  9995
2 54648  87.9279  24.5705 0002245  99.6669 260.4719 13.21825741 78246
ONEWEB-0582             
1 54649U 22166H   24193.03427854  .00000049  00000+0  86797-4 0  9990
2 54649  87.9276  24.5834 0002290 104.1314 256.0074 13.21824835 78705
ONEWEB-0583             
1 54650U 22166J   24193.04532086  .00000062  00000+0  11892-3 0  9995
2 54650  87.9274  24.5812 0001936  87.0868 273.0488 13.21825674 78722
ONEWEB-0584             
1 54651U 22166K   24192.91442804 -.00000008  00000+0 -50921-4 0  9998
2 54651  87.9279  24.5742 0002112  94.9312 265.2063 13.21825379 78216
ONEWEB-0585             
1 54652U 22166L   24192.93965601  .00000051  00000+0  92012-4 0  9999
2 54652  87.9283  24.5782 0001770  86.4112 273.7225 13.21825538 78221
ONEWEB-0586             
1 54653U 22166M   24193.10365395  .00000065  00000+0  12581-3 0  9991
2 54653  87.9276  24.5591 0002046  91.1887 268.9481 13.21827554 78715
ONEWEB-0587             
1 54654U 22166N   24193.03742992  .00000033  00000+0  48898-4 0  9992
2 54654  87.9274  24.5272 0001652  79.9372 280.1948 13.21826333 78858
